COSMOS 2419 (714)       
1 28915U 05050A   16331.70784802 -.00000055  00000-0  00000+0 0  9995
2 28915  65.3991  72.6804 0014238 355.2019 266.1855  2.13106410 85015
COSMOS 2425 (716)       
1 29670U 06062A   16331.52513954 -.00000039  00000-0  10000-3 0  9993
2 29670  65.5604 311.6932 0021693 337.8346 198.9544  2.13104936 77218
COSMOS 2426 (717)       
1 29671U 06062B   16331.73178976 -.00000040  00000-0  10000-3 0  9990
2 29671  65.5782 311.7710 0017222 174.8262  20.2441  2.13103053 77223
COSMOS 2424 (715)       
1 29672U 06062C   16331.73453024 -.00000040  00000-0  10000-3 0  9991
2 29672  65.5622 311.6959 0016550 174.0931 199.0020  2.13102144 77227
COSMOS 2433 (720)       
1 32275U 07052A   16331.60717700 -.00000056  00000-0  10000-3 0  9991
2 32275  65.4134  72.4575 0002333 226.3762 205.4974  2.13104906 70737
COSMOS 2432 (719)       
1 32276U 07052B   16331.63922478 -.00000055  00000-0  10000-3 0  9994
2 32276  65.4257  72.5256 0009947 337.7372  72.1363  2.13104061 70736
COSMOS 2434 (721)       
1 32393U 07065A   16332.39340822 -.00000042  00000-0  00000+0 0  9990
2 32393  65.1774 310.9088 0002027 154.2224  51.6735  2.13102819 69450
COSMOS 2436 (723)       
1 32395U 07065C   16331.83089267 -.00000041  00000-0  10000-3 0  9997
2 32395  65.1580 310.9415 0038051  30.6466 192.5406  2.12556693 69375
COSMOS 2443 (725)       
1 33379U 08046B   16332.56131424 -.00000051  00000-0  00000+0 0  9990
2 33379  65.3435  71.8275 0017108 182.7525 164.0103  2.13100662 63612
COSMOS 2456 (730)       
1 36111U 09070A   16331.66256763  .00000085  00000-0  00000-0 0  9996
2 36111  64.1781 190.5034 0003626 334.6381 200.8805  2.13102987 54104
COSMOS 2457 (733)       
1 36112U 09070B   16332.12145260  .00000087  00000-0  00000+0 0  9999
2 36112  64.1606 190.4117 0006914 153.3368 143.7280  2.13101685 54113
COSMOS 2458 (734)       
1 36113U 09070C   16331.58116396  .00000084  00000-0  10000-3 0  9999
2 36113  64.1658 190.4367 0002280  49.5835 240.6530  2.13101888 54104
COSMOS 2459 (731)       
1 36400U 10007A   16331.72693314 -.00000056  00000-0  10000-3 0  9996
2 36400  65.3230  71.5841 0026477 353.3518  34.2850  2.13102147 52464
COSMOS 2461 (735)       
1 36401U 10007B   16332.17313000 -.00000054  00000-0  10000-3 0  9996
2 36401  65.3166  71.5494 0006816  83.0975 197.4498  2.13102162 52463
COSMOS 2460 (732)       
1 36402U 10007C   16332.10486664 -.00000054  00000-0  10000-3 0  9997
2 36402  65.3059  71.5264 0001458 147.8706 121.9063  2.13101840 52460
COSMOS 2465 (737)       
1 37138U 10041B   16331.62700267 -.00000042  00000-0  00000+0 0  9998
2 37138  64.7776 311.0251 0035511 176.1046 205.1426  2.13103388 48533
COSMOS 2464 (736)       
1 37139U 10041C   16331.64886242 -.00000042  00000-0  00000+0 0  9999
2 37139  64.7846 311.0222 0021937   5.2380 217.1767  2.13102596 48531
COSMOS 2471 (701K)      
1 37372U 11009A   16332.43627975 -.00000052  00000-0  00000+0 0  9998
2 37372  65.3032  71.4632 0008088 226.1943  70.9669  2.13102801 44741
COSMOS 2474 (742)       
1 37829U 11055A   16332.17148602  .00000087  00000-0  00000+0 0  9999
2 37829  64.5023 190.9668 0006607 247.2781 179.3426  2.13101920 40117
COSMOS 2476 (744)       
1 37867U 11064A   16331.30215785  .00000082  00000-0  00000+0 0  9997
2 37867  64.4820 191.0738 0015807 243.3544 282.2271  2.13101959 39447
COSMOS 2477 (745)       
1 37868U 11064B   16331.72971685  .00000085  00000-0  00000+0 0  9995
2 37868  64.4917 191.1008 0013820 244.3755  68.4641  2.13101913 39405
COSMOS 2475 (743)       
1 37869U 11064C   16331.76513811  .00000085  00000-0  00000+0 0  9993
2 37869  64.4976 191.0892 0018832 274.2369  22.0575  2.13102183 39415
COSMOS 2485 (747)       
1 39155U 13019A   16332.39323824  .00000088  00000-0  00000+0 0  9991
2 39155  64.6518 191.0223 0016169 237.5007  90.2238  2.13102065 27935
COSMOS 2492 (754)       
1 39620U 14012A   16331.62184644 -.00000057  00000-0  10000-3 0  9994
2 39620  65.1951  71.5077 0013478 332.5663 157.0318  2.13103431 20877
COSMOS 2500 (755)       
1 40001U 14032A   16331.97222074 -.00000055  00000-0  00000+0 0  9992
2 40001  65.1355  71.5081 0006988 195.0675  66.7814  2.13102791 19095
COSMOS 2501 (702K)      
1 40315U 14075A   16331.53213670 -.00000041  00000-0  00000+0 0  9996
2 40315  64.5107 312.4388 0016077 215.7768 236.7472  2.13099725 15492
COSMOS 2514 (751)       
1 41330U 16008A   16332.05595256 -.00000055  00000-0  00000+0 0  9998
2 41330  64.9360  71.7006 0009975 208.0383 297.5079  2.13103394  6265
COSMOS 2516 (753)       
1 41554U 16032A   16331.73951314 -.00000042  00000-0  00000-0 0  9995
2 41554  64.7302 312.1403 0013894 230.7346 285.8189  2.13101610  3860
